Address,City,State,Zip,Store Type
23rd & 8th - NY,NEW YORK,NY,10011,Gap
60 WEST 34TH STREET,NEW YORK,NY,10001,"Gap, GapBody, GapKids, babyGap"
122 5TH AVE,NEW YORK,NY,10011,"Gap, GapBody, GapKids, babyGap"
1212 AVENUE OF THE AMERICAS,NEW YORK,NY,10036,"Gap, GapBody, GapKids, babyGap"
657 3RD AVE,NEW YORK,NY,10017,"Gap, GapKids, babyGap"
680 5TH AVE,NEW YORK,NY,10019,"Gap, GapBody, GapKids, babyGap"
750 BROADWAY,NEW YORK,NY,10003,Gap
One Astor Place,NEW YORK,NY,10003,"Gap, GapBody, babyGap"
734 LEXINGTON AVE,NEW YORK,NY,10022,"Gap, GapBody, GapKids, babyGap"
93 Mercer Street,NEW YORK,NY,10012,
1988 Broadway,NEW YORK,NY,10023,"Gap, GapBody, GapKids, babyGap"
222 WASHINGTON ST,HOBOKEN,NJ,07030,"GapKids, babyGap"
3149 KENNEDY BLVD,NORTH BERGEN,NJ,07047,Gap Outlet
172 BROADWAY,NEW YORK,NY,10038,"Gap, GapBody, GapKids, babyGap"
1511 3RD AVE,NEW YORK,NY,10028,"Gap, GapBody, GapKids, babyGap"
25 PROMENADE,EDGEWATER,NJ,07020,"Gap, GapKids, babyGap"
400 Fulton Street,BROOKLYN,NY,11201,Gap Outlet
31-02 STEINWAY ST,LONG ISLAND CITY,NY,11103,GapKids
31-48 STEINWAY STREET,LONG ISLAND CITY,NY,11103,Gap
264 W. 125TH STREET,NEW YORK,NY,10027,Gap Outlet
37-32 82ND STREET,QUEENS,NY,11372,Gap Outlet
TBD,EAST RUTHERFORD,NJ,07073,
90-15 Queens Blvd,ELMHURST,NY,11373,"Gap, GapBody, GapKids, babyGap"
1016 FLATBUSH AVE,BROOKLYN,NY,11226,Gap Outlet
6939 Austin Street,FOREST HILLS,NY,11375,"Gap, GapBody, GapKids, babyGap"
845 WHITE PLAINS,BRONX,NY,10473,Gap Outlet
423 86th Street,BROOKLYN,NY,11209,Gap Outlet
141 MARKET STREET,NEWARK,NJ,07102,Gap Outlet
409 GATEWAY DRIVE,BROOKLYN,NY,11239,Gap Outlet
271 E. FORDHAM ROAD,BRONX,NY,10458,Gap Outlet
2101 86TH ST,BROOKLYN,NY,11214,"Gap, GapBody, GapKids"
16020 CROSSBAY BLVD,HOWARD BEACH,NY,11414,Gap
209 Riverside Square,HACKENSACK,NJ,07601,"Gap, GapBody, GapKids"
166-02 JAMAICA AVENUE,JAMAICA,NY,11432,Gap Outlet
651 Kapkowski Road,ELIZABETH,NJ,07201,Gap Outlet
211-15 26TH AVENUE,BAYSIDE,NY,11360,"Gap, GapBody, GapKids"
200 BAYCHESTER AVE,BRONX,NY,10475,"Gap, GapBody, GapKids, babyGap"
640 BERGEN TOWN CENTER,PARAMUS,NJ,07652,Gap Outlet
1 Garden State Plaza,PARAMUS,NJ,07652,"Gap, GapBody, GapKids, babyGap"
629 VALLEY ROAD,UPPER MONTCLAIR,NJ,07043,Gap
33 Mall Walk,YONKERS,NY,10704,"Gap, GapBody, GapKids, babyGap"
2655 Richmond Avenue,STATEN ISLAND,NY,10314,"GapKids, babyGap"
700 PARAMUS PARK,PARAMUS,NJ,07652,"Gap, GapKids, babyGap"
2655 Richmond Ave.,STATEN ISLAND,NY,10314,"Gap, GapBody"
ONE RIDGE HILL ROAD,YONKERS,NY,10710,"Gap, GapBody, GapKids, babyGap"
1400 Willowbrook Mall,WAYNE,NJ,07470,"Gap, GapBody, GapKids, babyGap"
235 East Ridgewood Avenue,RIDGEWOOD,NJ,07451,"Gap, GapBody, GapKids, babyGap"
1950 NORTHERN BOULEVARD,MANHASSET,NY,11030,"Gap, GapBody, GapKids, babyGap"
700 POST RD,SCARSDALE,NY,10583,"Gap, GapBody, GapKids, babyGap"
1340 BOSTON POST RD,LARCHMONT,NY,10538,"Gap, GapKids"
112 Eisenhower Parkway,LIVINGSTON,NJ,07039,"Gap, GapBody, GapKids, babyGap"
1200 MORRIS TURNPIKE,SHORT HILLS,NJ,07078,"Gap, GapBody, GapKids, babyGap"
1060A Old Country Road,GARDEN CITY,NY,11530,Gap Outlet
207 EAST BROAD ST,WESTFIELD,NJ,07090,"Gap, GapKids, babyGap"
630 OLD COUNTRY RD,GARDEN CITY,NY,11530,"Gap, GapBody, GapKids, babyGap"
3501 Long Beach Rd,OCEANSIDE,NY,11572,"Gap, GapBody, GapKids, babyGap"
423 CHESTNUT RIDGE RD,WOODCLIFF LAKE,NJ,07677,"Gap, GapBody, GapKids"
1515 US HIGHWAY RT 22,WATCHUNG,NJ,07069,Gap Outlet
491 MENLO PARK,EDISON,NJ,08837,"Gap, GapKids, babyGap"
125 Westchester Avenue,WHITE PLAINS,NY,10601,babyGap
125 WESTCHESTER AVENUE,WHITE PLAINS,NY,10601,Gap
6121 FASHION DRIVE,NANUET,NY,10954,"Gap, GapBody, GapKids, babyGap"
2520 Palisades Center Drive,WEST NYACK,NY,10994,"Gap, GapBody, GapKids, babyGap"
1970 MERRICK RD,MERRICK,NY,11566,"Gap, GapBody, GapKids, babyGap"
403 South Oyster Bay Road,PLAINVIEW,NY,11803,"Gap, GapBody, GapKids"
3056 State Route 10,DENVILLE,NJ,07834,"Gap, GapBody, GapKids, babyGap"
591 BROAD ST,SHREWSBURY,NJ,07702,"Gap, GapBody, GapKids"
160 WALT WHITMAN ROAD,HUNTINGTON STATION,NY,11746,"Gap, GapBody, GapKids, babyGap"
100 GREYROCK PLACE,STAMFORD,CT,06901,"Gap, GapBody, GapKids, babyGap"
65 SOUTH MOGER,MT KISCO,NY,10549,"Gap, GapBody, GapKids, babyGap"
375 Route 202,BRIDGEWATER,NJ,08807,"Gap, GapBody, GapKids, babyGap"
701 THE ARCHES CIRCLE,DEER PARK,NY,11729,Gap Outlet
300 S.O.C. ST.,CHESTER,NJ,07930,"Gap, GapBody, GapKids, babyGap"
ONE PREMIUM OUTLETS BLVD,TINTON FALLS,NJ,07753,Gap Outlet
170 E JERICHO TURNPIKE,COMMACK,NY,11725,"Gap, GapBody, GapKids"
470 EVERGREEN CT,CENTRAL VALLEY,NY,10917,Gap Outlet
2150 HIGHWAY 35,SEA GIRT,NJ,08750,"Gap, GapKids"
125 Main Street,WESTPORT,CT,06880,"Gap, GapBody, GapKids, babyGap"
537 Monmouth Rd,JACKSON,NJ,08527,Gap Outlet
3535 US HIGHWAY 1,PRINCETON,NJ,08540,"Gap, GapBody, GapKids, babyGap"
2215 BLACK ROCK TPKE,FAIRFIELD,CT,06825,"Gap, GapBody, GapKids, babyGap"
100 ARDEN PLACE,PORT JEFFERSON,NY,11777,"Gap, GapKids"
7 BACKUS AVE,DANBURY,CT,06810,"Gap, GapBody, GapKids, babyGap"
470 ROUTE 211 EAST,MIDDLETOWN,NY,10940,Gap Outlet
10 Farber Drive,BELLPORT,NY,11713,Gap Outlet
1201 Boston Post Road,MILFORD,CT,06460,"Gap, GapKids, babyGap"
2300 E. LINCOLN HWY,LANGHORNE,PA,19047,"Gap, GapBody, GapKids, babyGap"
State Street,NEWTOWN,PA,18940,GapBody
60 WEST RD,NEWTOWN,PA,18940,"Gap, GapKids"
775 Main Street South,SOUTHBURY,CT,06488,"Gap, GapBody, GapKids"
17 S MAIN ST,DOYLESTOWN,PA,18901,"Gap, GapKids"
1770 West Main Street,RIVERHEAD,NY,11901,Gap Outlet
1875 FRANKLIN MILLS CIRCLE,PHILADELPHIA,PA,19154,Gap Outlet
2165 Dixwell Avenue,HAMDEN,CT,06514,"Gap, GapBody, GapKids"
1000 ROUTE 611,TANNERSVILLE,PA,18372,Gap Outlet
2500 W MORELAND RD,WILLOW GROVE,PA,19090,"Gap, GapBody, GapKids, babyGap"
2123-25 COTTMAN AVENUE,PHILADELPHIA,PA,19149,Gap Outlet
226 MONTGOMERY MALL,NORTH WALES,PA,19454,"Gap, GapKids, babyGap"
300 Route 73 South,MARLTON,NJ,08053,"Gap, GapBody, GapKids"
737-741 SOUTH BROADWAY,LOS ANGELES,CA,90014,Gap Outlet
100 CITADEL DRIVE,COMMERCE,CA,90040,Gap Outlet
2111 GLENDALE GALLERIA,GLENDALE,CA,91210,GapKids
2124 GLENDALE GALLERIA,GLENDALE,CA,91210,babyGap
1158 Glendale Galleria,GLENDALE,CA,91210,"Gap, GapBody"
189 The Grove Drive,LOS ANGELES,CA,90036,"Gap, GapBody, GapKids, babyGap"
61 West Colorado Blvd.,PASADENA,CA,91105,"Gap, GapBody, GapKids, babyGap"
3480 WEST CENTURY BLVD,INGLEWOOD,CA,90303,Gap Outlet
1749 Montebello Town Ctr,MONTEBELLO,CA,90640,"Gap, GapBody, GapKids, babyGap"
301 N. SAN FERNANDO BLVD.,BURBANK,CA,91502,Gap Outlet
10800 W Pico Blvd,LOS ANGELES,CA,90064,"GapKids, babyGap"
12169 VENTURA BLVD,STUDIO CITY,CA,91604,"Gap, GapBody, babyGap"
400 S BALDWIN AVE,ARCADIA,CA,91007,"Gap, GapKids, babyGap"
14006 RIVERSIDE DR,SHERMAN OAKS,CA,91423,"Gap, GapBody"
14006 RIVERSIDE DR,SHERMAN OAKS,CA,91423,GapKids
3200 N SEPULVEDA BLVD,MANHATTAN BEACH,CA,90266,"Gap, GapBody, GapKids, babyGap"
1931 Wilshire Blvd,SANTA MONICA,CA,90403,"Gap, GapBody, GapKids, babyGap"
1815 HAWTHORNE BLVD,REDONDO BEACH,CA,90278,GapKids
1815 HAWTHORNE BLVD,REDONDO BEACH,CA,90278,Gap
1355 3rd Street Promenade,SANTA MONICA,CA,90401,"Gap, GapBody, GapKids, babyGap"
500 LAKEWOOD CENTER MALL,LAKEWOOD,CA,90712,"Gap, GapKids, babyGap"
220 LOS CERRITOS MALL,CERRITOS,CA,90703,"Gap, GapBody, GapKids, babyGap"
7872 N. VAN NUYS BLVD,VAN NUYS,CA,91401,Gap Outlet
3525 CARSON STREET,TORRANCE,CA,90503,"Gap, GapBody, GapKids, babyGap"
550 Deep Valley Drive,ROLLING HILLS ESTATE,CA,90274,"Gap, GapKids, babyGap"
55 BAY ST,LONG BEACH,CA,90802,Gap Outlet
5025 E 2ND ST,BELMONT SHORES,CA,90803,Gap
9301 Tampa Avenue,NORTHRIDGE,CA,91324,"Gap, GapBody, GapKids, babyGap"
1055 Brea Mall,BREA,CA,92821,"Gap, GapBody"
1055 Brea Mall,BREA,CA,92821,"Gap, GapKids, babyGap"
6600 TOPANGA CANYON BLVD,CANOGA PARK,CA,91303,"Gap, GapMaternity, GapKids, babyGap"
20 CITY BOULEVARD,ORANGE,CA,92868,Gap Outlet
18681 & 18661 Main Street,HUNTINGTON BEACH,CA,92648,"Gap, GapBody, GapKids, babyGap"
24201 VALENCIA BLVD,VALENCIA,CA,91355,"Gap, GapKids, babyGap"
3333 Bristol St,COSTA MESA,CA,92626,"Gap, GapBody"
3333 Bristol St,COSTA MESA,CA,92626,babyGap
3333 Bristol St,COSTA MESA,CA,92626,GapKids
570 W HILLCREST DR,THOUSAND OAKS,CA,91360,GapKids
1 Mills Circle,ONTARIO,CA,91764,Gap Outlet
8012 E PACIFIC COAST HWY,NEWPORT COAST,CA,92657,"Gap, GapBody, GapKids, babyGap"
12558 North MAINSTREET,RANCHO CUCAMONGA,CA,91739,"Gap, GapKids, babyGap"
003 The Shops at Mission Viejo,MISSION VIEJO,CA,92691,"GapKids, babyGap"
234 The Shops at Mission Viejo,MISSION VIEJO,CA,92691,"Gap, GapBody, GapKids, babyGap"
540 VENTURA BLVD,CAMARILLO,CA,93010,Gap Outlet
571 TOWN CENTER DRIVE,OXNARD,CA,93036,"Gap, GapBody, GapKids, babyGap"
17600 COLLIER AVE,LAKE ELSINORE,CA,92530,Gap Outlet
27461 SAN BERNARDINO AVE,REDLANDS,CA,92374,Gap Outlet
5701 OUTLETS AT TEJON PARKWAY,TEJON RANCH,CA,93203,Gap Outlet
48400 SEMINOLE DRIVE,CABAZON,CA,92230,Gap Outlet
5620 Paseo Del Norte,CARLSBAD,CA,92008,Gap Outlet
2796 TANGER WAY,BARSTOW,CA,92311,Gap Outlet
615 Paseo Nuevo,SANTA BARBARA,CA,93101,"Gap, GapBody, GapKids, babyGap"
200 East Via Rancho Parkway,ESCONDIDO,CA,92025,"Gap, GapBody, GapKids, babyGap"
555 N MICHIGAN AVE,CHICAGO,IL,60611,"Gap, GapBody, GapKids, babyGap"
835 NORTH MICHIGAN AVE.,CHICAGO,IL,60611,"GapKids, babyGap"
1740 N. Sheffield,CHICAGO,IL,60614,"GapKids, babyGap"
935 West North Avenue,CHICAGO,IL,60622,"Gap, GapBody"
3216 North Broadway Avenue,CHICAGO,IL,60657,"Gap, GapBody, GapKids, babyGap"
3416 N. SOUTHPORT,CHICAGO,IL,60657,"Gap, GapBody, GapKids, babyGap"
2778 N MILWAUKEE AVE,CHICAGO,IL,60647,Gap Outlet
435 N Harlem Ave,OAK PARK,IL,60301,"Gap, GapBody, GapKids"
7147 CERMAK RD,BERWYN,IL,60402,Gap Outlet
1706 SHERMAN AVE,EVANSTON,IL,60201,"Gap, GapBody, GapKids, babyGap"
5220 ROSE ST.,ROSEMONT,IL,60018,Gap Outlet
4999 OLD ORCHARD SHOPPING CTR,SKOKIE,IL,60077,"Gap, GapBody, GapKids"
4999 OLD ORCHARD SHOPPING CTR,SKOKIE,IL,60077,"GapKids, babyGap"
432 OAKBROOK CENTER,OAK BROOK,IL,60523,"Gap, GapBody, GapKids, babyGap"
244 YORKTOWN SHOPPING CTR,LOMBARD,IL,60148,"Gap, GapBody, GapKids, babyGap"
460 Orland Square Dr,ORLAND PARK,IL,60462,"Gap, GapBody, GapKids, babyGap"
1324 NORTHBROOK CT,NORTHBROOK,IL,60062,"Gap, GapBody, GapKids, babyGap"
5 WOODFIELD MALL,SCHAUMBURG,IL,60173,GapKids
5 WOODFIELD MALL,SCHAUMBURG,IL,60173,"Gap, GapBody, GapKids, babyGap"
301 TOWN SQ,WHEATON,IL,60187,"Gap, GapKids"
223 South Main Street,NAPERVILLE,IL,60540,"Gap, GapBody, GapKids"
20530 N RAND RD,DEER PARK,IL,60010,"Gap, GapBody, GapKids, babyGap"
319 HAWTHORN CTR,VERNON HILLS,IL,60061,"Gap, GapKids"
2288 FOX VALLEY CTR,AURORA,IL,60504,"Gap, GapBody, GapKids, babyGap"
1650 PREMIUM OUTLETS BLVD,AURORA,IL,60502,Gap Outlet
1650 PREMIUM OUTLETS BLVD,AURORA,IL,60504,Gap Outlet
214 COMMONS DR,GENEVA,IL,60134,"Gap, GapKids"
6170 GRAND AVE,GURNEE,IL,60031,Gap Outlet
1770 LIGHTHOUSE PL,MICHIGAN CITY,IN,46360,Gap Outlet
11211 120TH AVE,PLEASANT PRAIRIE,WI,53158,Gap Outlet
2500 North Mayfair Road,WAUWATOSA,WI,53226,"Gap, GapBody"
2500 N MAYFAIR RD,WAUWATOSA,WI,53226,"GapKids, babyGap"
401 WEST NORTH SHORE DRIVE,GLENDALE,WI,53217,"Gap, GapBody, GapKids, babyGap"
1977 W GRAY ST,HOUSTON,TX,77019,"Gap, GapBody, GapKids, babyGap"
6225 KIRBY DR,HOUSTON,TX,77005,"Gap, GapBody, GapKids, babyGap"
5135 WEST ALABAMA,HOUSTON,TX,77056,"GapBody, babyGap"
5085 WESTHEIMER RD,HOUSTON,TX,77056,"Gap, GapBody, GapKids, babyGap"
900 GESSNER RD,HOUSTON,TX,77024,"Gap, GapBody, GapKids, babyGap"
12850 Memorial Drive,HOUSTON,TX,77024,"Gap, GapBody, GapKids, babyGap"
5462 FM 1960 West,HOUSTON,TX,77069,"Gap, GapBody, GapKids"
20131 Highway 59 North,HUMBLE,TX,77338,"Gap, GapKids"
1069 Baybrook Mall,FRIENDSWOOD,TX,77546,"Gap, GapBody, GapKids, babyGap"
5000 Katy Mills Circle,KATY,TX,77494,Gap Outlet
1201 LAKE WOODLANDS DR,THE WOODLANDS,TX,77380,"Gap, GapBody, GapKids, babyGap"
29300 HIGHWAY 290,CYPRESS,TX,77433,Gap Outlet
9595 SIX PINES DRIVE,THE WOODLANDS,TX,77380,"GapKids, babyGap"
5885 GULF FREEWAY FRONTAGE ROAD,TEXAS CITY,TX,77592,Gap Outlet
1510 Walnut Street,PHILADELPHIA,PA,19102,"Gap, GapBody, GapMaternity, GapKids, babyGap"
1912-18 CHESTNUT ST,PHILADELPHIA,PA,19103,Gap Outlet
40 SOUTH 69TH STREET,UPPER DARBY,PA,19082,Gap Outlet
8500 ESSINGTON,PHILADELPHIA,PA,19153,Gap
2000 ROUTE 38,CHERRY HILL,NJ,08002,"Gap, GapBody, GapKids, babyGap"
84 COULTER AVENUE,ARDMORE,PA,19003,"GapKids, babyGap"
100 COULTER AVE,ARDMORE,PA,19003,Gap
1200 Baltimore Pike,SPRINGFIELD,PA,19064,"Gap, GapKids"
2510 Chemical Rd,PLYMOUTH MEETING,PA,19462,"Gap, GapBody, GapKids"
100 PREMIUM OUTLETS DRIVE,BLACKWOOD,NJ,08012,Gap Outlet
132 E Lancaster Ave,WAYNE,PA,19087,"Gap, GapKids, babyGap"
350 MALL BLVD,KING OF PRUSSIA,PA,19406,"Gap, GapBody, GapKids"
160 N. GULPH ROAD,KING OF PRUSSIA,PA,19406,"GapKids, babyGap"
605 WILMINGTON WESTCHESTER PIKE,GLEN MILLS,PA,19342,"Gap, GapKids, babyGap"
336 EXTON SQUARE PKWY,EXTON,PA,19341,"GapKids, babyGap"
154 E LINCOLN HWY,EXTON,PA,19341,"Gap, GapBody"
18 WEST LIGHTCAP ROAD,LIMERICK,PA,19464,Gap Outlet
458 CHRISTIANA MALL,NEWARK,DE,19702,"Gap, GapKids, babyGap"
140 LEHIGH VALLEY MALL,WHITEHALL,PA,18052,"Gap, GapBody, GapKids, babyGap"
1665 State Hill Road,READING,PA,19610,"Gap, GapKids"
1002 STANLEY K TANGER BLVD,LANCASTER,PA,17602,Gap Outlet
102 N MICHIGAN AVE,ATLANTIC CITY,NJ,08401,Gap Outlet
555 PARK CITY CTR,LANCASTER,PA,17601,"Gap, GapKids, babyGap"
39 OUTLET SQUARE,HERSHEY,PA,17033,Gap Outlet
825 Dulaney Valley Road,TOWSON,MD,21204,"Gap, GapBody, GapKids, babyGap"
36461 SEASIDE OUTLET DR,REHOBOTH BEACH,DE,19971,Gap Outlet
424 OUTLET CENTER DR,QUEENSTOWN,MD,21658,Gap Outlet
200 East Pratt Street,BALTIMORE,MD,21202,"Gap, GapKids"
5000 S ARIZONA MILLS CIR,TEMPE,AZ,85282,Gap Outlet
7014 East Camelback Road,SCOTTSDALE,AZ,85251,"Gap, GapBody, GapKids, babyGap"
6800 N 95 AVE,GLENDALE,AZ,85305,Gap Outlet
4976 PREMIUM OUTLETS WAY,CHANDLER,AZ,85226,Gap Outlet
15729 NORTH SCOTTSDALE ROAD,SCOTTSDALE,AZ,85254,"Gap, GapBody"
15279 North Scottsdale Road,SCOTTSDALE,AZ,85254,"Gap, GapBody, GapKids, babyGap"
4250 W ANTHEM WAY,PHOENIX,AZ,85086,Gap Outlet
6401 WEST MARANA CENTER BLVD,TUCSON,AZ,85742,Gap Outlet
7322 Jones Maltsberger Road #114,SAN ANTONIO,TX,78209,"Gap, GapBody, GapKids, babyGap"
148 NORTH STAR MALL,SAN ANTONIO,TX,78216,"Gap, GapBody, GapKids"
11745 IH 10 WEST,SAN ANTONIO,TX,78230,"Gap, GapKids"
15900 La Cantera Parkway,SAN ANTONIO,TX,78256,"Gap, GapBody, GapKids, babyGap"
3939 S INTERSTATE HWY 35,SAN MARCOS,TX,78666,Gap Outlet
2901 S CAPITAL OF TEXAS HWY,AUSTIN,TX,78746,"Gap, GapBody, GapKids, babyGap"
4001 N LAMAR BLVD.,AUSTIN,TX,78756,"Gap, GapBody, GapKids, babyGap"
10000 RESEARCH BLVD,AUSTIN,TX,78759,"GapKids, babyGap"
10000 Research Boulevard,AUSTIN,TX,78759,Gap
324 Horton Plz,SAN DIEGO,CA,92101,"Gap, GapBody, GapKids, babyGap"
7007 Friars Road,SAN DIEGO,CA,92108,"Gap, GapBody, GapKids, babyGap"
4505 La Jolla Village Dr,SAN DIEGO,CA,92122,"Gap, GapBody, GapKids, babyGap"
4265 Camino De La Plaza,SAN YSIDRO,CA,92173,Gap Outlet
5003 Willows Road,ALPINE,CA,91901,Gap Outlet
3699 McKinney Avenue,DALLAS,TX,75204,"Gap, GapBody, GapKids, babyGap"
5331 E. Mockingbird Lane,DALLAS,TX,75206,"Gap, GapBody, GapKids, babyGap"
5350 W LOVERS LN,DALLAS,TX,75209,"Gap, GapKids, babyGap"
728 NORTHPARK CENTER,DALLAS,TX,75225,"Gap, GapBody, GapKids, babyGap"
10720 PRESTON RD,DALLAS,TX,75230,"Gap, GapBody, GapKids, babyGap"
13250 Dallas Parkway,DALLAS,TX,75240,"Gap, GapBody, GapKids, babyGap"
7601 North MacArthur Blvd.,IRVING,TX,75063,"Gap, GapBody, GapKids"
2950 W. INTERSTATE 20,GRAND PRAIRIE,TX,75052,Gap Outlet
1900 Preston Rd.,PLANO,TX,75093,"Gap, GapBody, GapKids, babyGap"
1500 North Collins Street,ARLINGTON,TX,76011,"Gap, GapBody, GapKids"
3000 GRAPEVINE MILLS PARKWAY,GRAPEVINE,TX,76051,Gap Outlet
2601 Preston Rd,FRISCO,TX,75034,"Gap, GapBody, GapKids, babyGap"
167 Grand Avenue,SOUTHLAKE,TX,76092,"Gap, GapBody, GapKids"
1101 MELBOURNE RD,HURST,TX,76053,"Gap, GapBody, GapKids, babyGap"
820 W. STACY ROAD,ALLEN,TX,75013,Gap Outlet
820 WEST STACY ROAD,ALLEN,TX,75013,Gap Outlet
301 Tanger Drive,TERRELL,TX,75160,Gap Outlet
1540 SOUTH UNIVERSITY DRIVE,FORT WORTH,TX,76107,"Gap, GapBody, GapKids"
104 I-35 HWY NE,HILLSBORO,TX,76645,Gap Outlet
2432 W. LOOP 340,WACO,TX,76711,"Gap, GapBody, GapKids, babyGap"
2855 STEVENS CREEK BLVD,SANTA CLARA,CA,95050,"Gap, GapBody, GapMaternity, GapKids, babyGap"
271 GREAT MALL DRIVE,MILPITAS,CA,95035,Gap Outlet
1600 SARATOGA AVE,SAN JOSE,CA,95129,Gap Outlet
35 University Avenue,LOS GATOS,CA,95030,"Gap, GapBody, GapKids, babyGap"
165 STANFORD SHOPPING CTR,PALO ALTO,CA,94304,"Gap, GapBody"
228 STANFORD SHOPPING CTR,PALO ALTO,CA,94304,"GapKids, babyGap"
3002 LIVERMORE OUTLETS DRIVE,LIVERMORE,CA,94551,Gap Outlet
2133 STONERIDGE MALL RD,PLEASANTON,CA,94588,"Gap, GapBody, GapKids, babyGap"
1225 Pacific Ave,SANTA CRUZ,CA,95060,"Gap, GapBody, GapKids, babyGap"
437 Hillsdale Mall,SAN MATEO,CA,94403,"Gap, GapBody, GapKids, babyGap"
8555 SAN YSIDRO AVE,GILROY,CA,95020,Gap Outlet
1259 MARINA BLVD.,SAN LEANDRO,CA,94577,Gap Outlet
1294 Burlingame Ave,BURLINGAME,CA,94010,Gap
1390 Burlingame Ave,BURLINGAME,CA,94010,babyGap
3277 Lakeshore Ave,OAKLAND,CA,94610,"Gap, GapKids, babyGap"
51 BROADWAY PLAZA,WALNUT CREEK,CA,94596,"Gap, GapBody, GapKids, babyGap"
5690 Bay St,EMERYVILLE,CA,94608,"Gap, GapBody, GapKids, babyGap"
890 Market St,SAN FRANCISCO,CA,94102,"Gap, GapBody, GapKids, babyGap"
3251 20TH AVE,SAN FRANCISCO,CA,94132,"Gap, GapBody, GapKids, babyGap"
3 EMBARCADERO CTR,SAN FRANCISCO,CA,94111,"Gap, GapBody, GapKids, babyGap"
3491 California St,SAN FRANCISCO,CA,94118,"GapKids, babyGap"
2159 Chestnut St,SAN FRANCISCO,CA,94123,"Gap, GapKids, babyGap"
2040 Chestnut St,SAN FRANCISCO,CA,94123,GapBody
2169 Chestnut St,SAN FRANCISCO,CA,94123,babyGap
315 Sun Valley Mall,CONCORD,CA,94520,"Gap, GapKids, babyGap"
3401 Dale Road,MODESTO,CA,95356,"Gap, GapBody, GapKids, babyGap"
615 DEL MONTE CENTER,MONTEREY,CA,93940,"Gap, GapBody, GapKids, babyGap"
1554 Redwood Highway,CORTE MADERA,CA,94925,"Gap, GapBody, GapKids, babyGap"
629 FACTORY STORES DRIVE,NAPA,CA,94558,Gap Outlet
121-A Nut Tree Road,VACAVILLE,CA,95687,Gap Outlet
2200 Petaluma Blvd. North,PETALUMA,CA,94952,Gap Outlet
500 1ST ST,DAVIS,CA,95616,"Gap, GapBody, GapKids, babyGap"
1689 Arden Way,SACRAMENTO,CA,95815,"GapKids, babyGap"
1689 Arden Way,SACRAMENTO,CA,95815,Gap
13000 Folsom Blvd,FOLSOM,CA,95630,Gap Outlet
4401 North Interstate Highgway 35,ROUND ROCK,TX,78664,Gap Outlet
4711 River City Drive,JACKSONVILLE,FL,32246,"Gap, GapBody"
4712 River City Drive,JACKSONVILLE,FL,32246,GapKids
2700 STATE ROAD 16,ST AUGUSTINE,FL,32092,Gap Outlet
6655 W NEWBERRY RD,GAINESVILLE,FL,32605,"Gap, GapKids"
GAP OUTLET,DAYTONA BEACH,FL,32117,Gap Outlet
1151 Galleria Blvd,ROSEVILLE,CA,95678,"GapKids, babyGap"
1151 Galleria Blvd,ROSEVILLE,CA,95678,"Gap, GapBody"
8702 Keystone Crossing,INDIANAPOLIS,IN,46240,"Gap, GapBody"
8702 Keystone Crossing,INDIANAPOLIS,IN,46240,"Gap, GapKids, babyGap"
6020 East 82nd Street,INDIANAPOLIS,IN,46250,"Gap, GapBody, GapKids"
11606 N/E Executive Drive,EDINBURGH,IN,46124,Gap Outlet
2050 Global Way,HEBRON,KY,41048,
4000 EASTON STA,COLUMBUS,OH,43219,"Gap, GapKids, babyGap"
5043 Tuttle Crossing Blvd.,DUBLIN,OH,43016,Gap
1500 Polaris Parkway,COLUMBUS,OH,43240,"Gap, GapBody, GapKids, babyGap"
400 SOUTH WILSON ROAD,SUNBURY,OH,43074,Gap Outlet
8000 Factory Shops Blvd.,JEFFERSONVILLE,OH,43128,Gap Outlet
4403 Juniper Way,BEAVERCREEK,OH,45440,"Gap, GapBody, GapKids, babyGap"
131 PREMIUM OUTLET DRIVE,MONROE,OH,45050,Gap Outlet
7590 SLOAN WAY,LIBERTY TOWNSHIP,OH,45069,"Gap, GapKids, babyGap"
9913 Avon Lake Rd,BURBANK,OH,44214,Gap Outlet
2659 EDMONDSON RD,CINCINNATI,OH,45209,"Gap, GapBody, GapKids, babyGap"
4400 SHARON RD,CHARLOTTE,NC,28211,"Gap, GapKids, babyGap"
5416 NEW FASHION WAY,CHARLOTTE,NC,28278,Gap Outlet
8022 Providence Road,CHARLOTTE,NC,28277,"Gap, GapBody, GapKids, babyGap"
8111 Concord Mills Blvd.,CONCORD,NC,28027,Gap Outlet
8701 Townley Road,HUNTERSVILLE,NC,28078,"Gap, GapKids"
240 FACTORY SHOPS BLVD.,GAFFNEY,SC,29341,Gap Outlet
3320 Silas Creek Parkway,WINSTON SALEM,NC,27103,"Gap, GapBody, GapKids, babyGap"
200 SHOPPES ON THE PARKWAY RD,BLOWING ROCK,NC,28605,Gap Outlet
100 COLUMBIANA CIR,COLUMBIA,SC,29212,"Gap, GapBody, GapKids, babyGap"
801C FRIENDLY CENTER RD,GREENSBORO,NC,27408,"GapKids, babyGap"
700 HAYWOOD ROAD,GREENVILLE,SC,29607,"Gap, GapKids, babyGap"
1530 5th Ave,SEATTLE,WA,98101,"Gap, GapBody, GapKids, babyGap"
4625 27th Ave NE,SEATTLE,WA,98105,"Gap, GapBody, GapKids, babyGap"
183 BELLEVUE SQ,BELLEVUE,WA,98004,"Gap, GapKids, babyGap"
401 NE NORTHGATE WAY,SEATTLE,WA,98125,"Gap, GapKids, babyGap"
7430 164TH AVE NE,REDMOND,WA,98052,"Gap, GapKids"
3000 184TH ST SW #432,LYNNWOOD,WA,98037,GapKids
1101 OUTLET COLLECTION WAY,AUBURN,WA,98001,Gap Outlet
521 SOUTH FORK AVE SOUTHWEST,NORTH BEND,WA,98045,Gap Outlet
4502 S STEELE ST,TACOMA,WA,98409,"Gap, GapBody, GapKids, babyGap"
10600 Quil Ceda Boulevard,TULALIP,WA,98271,Gap Outlet
416 Fashion Way,BURLINGTON,WA,98233,Gap Outlet
124 W. HIGH ST.,CENTRALIA,WA,98531,Gap Outlet
1319 GOVERMENT STREET,VICTORIA,BC,V8W 1Y9,"GapKids, babyGap"
1319 GOVERNMENT STREET,VICTORIA,BC,V8W 1Y9,"Gap, GapBody"
3147 DOUGLAS ST,VICTORIA,BC,V8Z 6E3,"Gap, GapBody, GapKids, babyGap"
2945 JACKLIN ROAD,VICTORIA,BC,V9B 5E3,Gap Outlet
1 Bellis Fair Parkway,BELLINGHAM,WA,98226,"Gap, GapKids"
32900 S FRASER WAY,ABBOTSFORD,BC,V2S 5A1,"Gap, GapKids, babyGap"
32900 South Fraser Way,ABBOTSFORD,BC,V2S 3P9,GapKids
8401 GATEWAY BLVD W,EL PASO,TX,79925,"Gap, GapBody, GapKids, babyGap"
7051 SOUTH DESERT BLVD.,EL PASO,TX,79835,Gap Outlet
1555 TALBOT ROAD,WINDSOR,ON,N9H 2N2,Gap Outlet
3160 FAIRLANE DRIVE,ALLEN PARK,MI,48101,Gap Outlet
2800 WEST BIG BEAVER RD,TROY,MI,48084,"Gap, GapBody, GapKids, babyGap"
30825 ORCHARD LAKE RD.,FARMINGTON HILLS,MI,48334,"Gap, GapKids"
17370 HALL ROAD #112,CLINTON TWP,MI,48038,"Gap, GapBody, GapKids, babyGap"
27482 NOVI ROAD,NOVI,MI,48377,"Gap, GapBody, GapKids, babyGap"
232 N ADAMS RD,ROCHESTER HILLS,MI,48309,"Gap, GapBody, GapKids, babyGap"
4742 BALDWIN ROAD,AUBURN HILLS,MI,48326,Gap Outlet
280 BRIARWOOD CIR,ANN ARBOR,MI,48108,"Gap, GapBody, GapKids, babyGap"
1475 BURKHART RD,HOWELL,MI,48855,Gap Outlet
3100 MAIN STREET,MAUMEE,OH,43537,"Gap, GapBody, GapKids, babyGap"
12205 MARKET PLACE DR,BIRCH RUN,MI,48415,Gap Outlet
3000 TOWNE CENTRE BLVD,LANSING,MI,48912,"Gap, GapKids"
206 MARKET ST,WESTLAKE,OH,44145,"Gap, GapBody, GapKids, babyGap"
500 16th Street,DENVER,CO,80202,"Gap, GapBody"
3000 E 1ST AVE,DENVER,CO,80206,"Gap, GapBody, GapKids, babyGap"
8501 W. BOWLES AVE,LITTLETON,CO,80123,"Gap, GapBody, GapKids, babyGap"
7301 So. Santa Fe Drive,LITTLETON,CO,80120,"Gap, GapBody, GapKids, babyGap"
8405 PARK MEADOWS CENTER DR,LONE TREE,CO,80124,"Gap, GapBody, GapKids, babyGap"
1 W Flatiron Cir,BROOMFIELD,CO,80021,"Gap, GapBody, GapKids, babyGap"
5050 Factory Shops Blvd,CASTLE ROCK,CO,80108,Gap Outlet
1925 BRIARGATE PARKWAY,COLORADO SPRINGS,CO,80920,"Gap, GapBody, GapKids, babyGap"
125-C Stephens Way,SILVERTHORNE,CO,80498,Gap Outlet
1120 CONNECTICUT AV NW,WASHINGTON,DC,20036,"Gap, GapBody"
664 11th ST NW,WASHINGTON,DC,20004,"Gap, GapBody, GapKids, babyGap"
1258 WISCONSIN AVE NW,WASHINGTON,DC,20007,"Gap, GapBody, GapKids, babyGap"
1100 S HAYES ST,ARLINGTON,VA,22202,"Gap, GapKids"
1100 S HAYES ST,ARLINGTON,VA,22202,babyGap
5430 Wisconsin Ave,CHEVY CHASE,MD,20815,"Gap, GapBody, GapKids"
622 KING STREET,ALEXANDRIA,VA,22314,Gap Outlet
7906LA Tyson's Corner Center,MCLEAN,VA,22102,"Gap, GapBody, GapKids, babyGap"
6800 OXON HILL RD,NATIONAL HARBOR,MD,20745,Gap Outlet
7101 DEMOCRACY BLVD,BETHESDA,MD,20817,"Gap, GapKids"
11820 GRAND PARK AVE,ROCKVILLE,MD,20852,"Gap, GapBody, GapKids, babyGap"
11930U FAIR OAKS MALL,FAIRFAX,VA,22033,"GapKids, babyGap"
11750-U FAIR OAKS MALL,FAIRFAX,VA,22033,"Gap, GapBody, GapKids, babyGap"
21100 Dulles Town Circle,DULLES,VA,20166,"Gap, GapKids"
2700 POTOMAC MILLS CIR,PRINCE WILLIAM,VA,22192,Gap Outlet
10300 LITTLE PATUXENT PKWY,COLUMBIA,MD,21044,"Gap, GapBody, GapKids, babyGap"
7000 ARUNDEL MILLS CIR,HANOVER,MD,21076,Gap Outlet
22705 CLARKSBURG ROAD,CLARKSBURG,MD,20871,Gap Outlet
I-270 AND CLARKSBURG ROAD,CLARKSBURG,MD,20871,Gap Outlet
241 FORT EVANS ROAD NE,LEESBURG,VA,20176,Gap Outlet
1863 Gettysburg Village D,GETTYSBURG,PA,17325,Gap Outlet
100 PREMIUM OUTLETS BLVD,HAGERSTOWN,MD,21740,Gap Outlet
11800 West Broad Street,RICHMOND,VA,23233,"Gap, GapBody, GapKids, babyGap"
1534 RIO RD E,CHARLOTTESVILLE,VA,22901,"Gap, GapKids"
95 GOODMAN ROAD WEST,SOUTHAVEN,MS,38671,Gap Outlet
2760 N Germantown Pkwy,MEMPHIS,TN,38133,"GapBody, GapKids, babyGap"
5205 AIRWAYS BLVD,SOUTHAVEN,MS,38671,Gap Outlet
1253 VANN DRIVE,JACKSON,TN,38305,Gap Outlet
3834 MARKET CENTER DRIVE,TUPELO,MS,38804,Gap Outlet
411 WASHINGTON STREET,BOSTON,MA,02110,Gap Outlet
200 STATE ST,BOSTON,MA,02109,"Gap, GapBody, GapKids"
100 Cambridgeside Place,CAMBRIDGE,MA,02141,"Gap, GapBody, GapKids, babyGap"
100 HUNTINGTON AVE,BOSTON,MA,02116,"Gap, GapBody, GapKids, babyGap"
10 MYSTIC VIEW RD,EVERETT,MA,02149,Gap Outlet
15 BRATTLE ST,CAMBRIDGE,MA,02138,"Gap, GapBody, GapKids, babyGap"
306 HARVARD ST,BROOKLINE,MA,02446,"Gap, GapBody, GapKids, babyGap"
485 ARSENAL STREET,WATERTOWN,MA,02472,Gap Outlet
250 Granite Street,BRAINTREE,MA,02184,"Gap, GapBody, GapKids, babyGap"
900 MARKET STREET,LYNNFIELD,MA,01940,"Gap, GapKids, babyGap"
950 PROVIDENCE HIGHWAY,DEDHAM,MA,02026,"Gap, GapBody, GapKids, babyGap"
75 Middlesex Turnpike,BURLINGTON,MA,01803,"Gap, GapKids, babyGap"
450 PARADISE ROAD,SWAMPSCOTT,MA,01907,"Gap, GapBody, GapKids"
74 CENTRAL ST,WELLESLEY,MA,02482,"Gap, GapBody, GapKids"
210 ANDOVER ST,PEABODY,MA,01960,"Gap, GapBody, GapKids, babyGap"
94 DERBY ST,HINGHAM,MA,02043,"Gap, GapBody"
94 DERBY ST,HINGHAM,MA,02043,babyGap
1245 Worcester Rd,NATICK,MA,01760,"Gap, GapBody, GapKids, babyGap"
90 Pleasant Valley Street,METHUEN,MA,01844,"Gap, GapBody, GapKids"
1 PREMIUM OUTLET BLVD,WRENTHAM,MA,02093,Gap Outlet
99 ROCKINGHAM PARK BLV,SALEM,NH,03079,"Gap, GapBody, GapKids, babyGap"
537 LINCOLN STREET #5,WORCESTER,MA,01605,Gap Outlet
70 Worcester Providence Turnpike,MILLBURY,MA,01527,"Gap, GapBody, GapKids, babyGap"
1 Providence Place,PROVIDENCE,RI,02903,"Gap, GapBody, GapKids, babyGap"
80 PREMIUM OUTLETS BLVD,MERRIMACK,NH,03054,Gap Outlet
81 Hillside Road,CRANSTON,RI,02920,"Gap, GapBody, GapKids, babyGap"
325 US ROUTE 1,KITTERY,ME,03904,Gap Outlet
4-8 LONG WHARF MALL S.,NEWPORT,RI,02840,"Gap, GapKids, babyGap"
769 IYANNOUGH ROAD,HYANNIS,MA,02601,"Gap, GapBody, GapKids, babyGap"
455 TROLLEY LINE BLVD,MASHANTUCKET,CT,06338,Gap Outlet
690 Bliss Road,LONGMEADOW,MA,01106,"Gap, GapBody, GapKids, babyGap"
120 Laconia Road,TILTON,NH,03276,Gap Outlet
400 EVERGREEN WAY,SOUTH WINDSOR,CT,06074,"GapKids, babyGap"
201 EVERGREEN WAY,SOUTH WINDSOR,CT,06074,"Gap, GapBody"
2126 ABBOTT MARTIN RD,NASHVILLE,TN,37215,Gap
2126 ABBOTT MARTIN RD,NASHVILLE,TN,37215,"GapKids, babyGap"
202 Opry Mills Dr,NASHVILLE,TN,37214,Gap Outlet
1800 GALLERIA BLVD,FRANKLIN,TN,37067,"Gap, GapKids, babyGap"
100 Outlet Village Blvd,LEBANON,TN,37090,Gap Outlet
2615 MEDICAL CENTER PKWY,MURFREESBORO,TN,37129,"Gap, GapBody, GapKids, babyGap"
"320 THE BRIDGE STREET, STE 100",HUNTSVILLE,AL,35806,"Gap, GapBody, GapKids, babyGap"
1901 NW EXPRESSWAY ST,OKLAHOMA CITY,OK,73118,"Gap, GapBody, GapKids, babyGap"
7630 WEST RENO AVENUE,OKLAHOMA CITY,OK,73127,Gap Outlet
2501 W MEMORIAL RD,OKLAHOMA CITY,OK,73134,"Gap, GapKids, babyGap"
700 S.W. 5th Avenue,PORTLAND,OR,97204,"Gap, GapBody, GapKids, babyGap"
1222 Lloyd Ctr,PORTLAND,OR,97232,"Gap, GapBody, GapKids, babyGap"
9348 SW WASHINGTON SQUARE RD,TIGARD,OR,97223,"GapKids, babyGap"
9677 SW WASHINGTON SQUARE RD,TIGARD,OR,97223,"Gap, GapBody"
12000 SE 82ND AVE,HAPPY VALLEY,OR,97086,"Gap, GapBody, GapKids, babyGap"
19346 NW EMMA WAY,HILLSBORO,OR,97124,"Gap, GapBody, GapKids, babyGap"
450 NW 257TH AVE,TROUTDALE,OR,97060,Gap Outlet
1001 N ARNEY RD,WOODBURN,OR,97071,Gap Outlet
1500 SE EAST DEVILS LK RD,LINCOLN CITY,OR,97367,Gap Outlet
795 S. GRAND CENTRAL PKWY,LAS VEGAS,NV,89106,Gap Outlet
3200 LAS VEGAS BLVD S,LAS VEGAS,NV,89109,"Gap, GapBody"
3500 Las Vegas Boulevard South,LAS VEGAS,NV,89109,"Gap, GapBody, GapKids, babyGap"
7400 LAS VEGAS BLVD. SOUTH,LAS VEGAS,NV,89123,Gap Outlet
1890 FESTIVAL PLAZA DRIVE,LAS VEGAS,NV,89135,"Gap, GapBody, GapKids, babyGap"
32100 LAS VEGAS BLVD S,PRIMM,NV,89019,Gap Outlet
4160 SUMMIT PLAZA DR,LOUISVILLE,KY,40241,"Gap, GapBody, GapKids, babyGap"
1155 BUCK CREEK ROAD,SIMPSONVILLE,KY,40067,Gap Outlet
1944 NORTH DIXIE AVENUE,ELIZABETHTOWN,KY,42701,Gap Outlet
3401 Nicholasville Road,LEXINGTON,KY,40503,"Gap, GapBody, GapKids, babyGap"
2308 Sir Barton Way,LEXINGTON,KY,40509,"Gap, GapBody, GapKids, babyGap"
575 LINMAR LN,JOHNSON CREEK,WI,53038,Gap Outlet
3001 S. Washburn,OSHKOSH,WI,54904,Gap Outlet
341 State Street,MADISON,WI,53703,Gap
431A BAY PARK SQ,GREEN BAY,WI,54304,"Gap, GapKids, babyGap"
2240 Q STREET NE,ALBUQUERQUE,NM,87110,"Gap, GapBody, GapKids, babyGap"
5870 E BROADWAY BLVD,TUCSON,AZ,85711,"Gap, GapBody, GapKids, babyGap"
4500 N ORACLE RD,TUCSON,AZ,85705,"Gap, GapKids"
1501 RETHERFORD ST,TULARE,CA,93274,Gap Outlet
424 West 47th Street,KANSAS CITY,MO,64112,"Gap, GapBody, GapKids, babyGap"
4860 West 119th Street,LEAWOOD,KS,66209,"Gap, GapBody, GapKids, babyGap"
7321 N.W. 86TH TERRACE,KANSAS CITY,MO,64153,"Gap, GapBody, GapKids, babyGap"
1829 VILLGE WEST PARKWAY,KANSAS CITY,KS,66111,Gap Outlet
1030 NE CORONADO DRIVE,BLUE SPRINGS,MO,64014,Gap Outlet
643 Massachusetts Street,LAWRENCE,KS,66044,"Gap, GapBody, GapKids, babyGap"
1801 SW WANAMAKER ROAD,TOPEKA,KS,66604,Gap Outlet
260 18th Street,ATLANTA,GA,30363,"Gap, GapBody"
3393 PEACHTREE RD NE,ATLANTA,GA,30326,"Gap, GapBody"
3393 Peachtree Road NE,ATLANTA,GA,30326,"GapKids, babyGap"
4400 ASHFORD DUNWOODY RD NE,ATLANTA,GA,30346,"Gap, GapBody, GapKids, babyGap"
4475 ROSWELL ROAD,MARIETTA,GA,30062,"Gap, GapBody, GapKids, babyGap"
3625 DALLAS HIGHWAY,MARIETTA,GA,30063,"Gap, GapBody, GapKids, babyGap"
2150 AVALON BLVD,ALPHARETTA,GA,30009,"Gap, GapBody, GapKids, babyGap"
915 RIDGEWALK PKY,WOODSTOCK,GA,30188,Gap Outlet
214 City Circle,PEACHTREE CITY,GA,30269,"Gap, GapBody, GapKids"
1000 TANGER DRIVE,LOCUST GROVE,GA,30248,Gap Outlet
3333 Buford Drive,BUFORD,GA,30519,"Gap, GapBody, GapKids"
800 Highway 400 South,DAWSONVILLE,GA,30534,Gap Outlet
1791 OCONEE CONNECTOR,ATHENS,GA,30606,Gap Outlet
455 BELWOOD RD SE,CALHOUN,GA,30701,Gap Outlet
800 STEVEN B TANGER BLVD,COMMERCE,GA,30529,Gap Outlet
"5080 RIVERSIDE DR., SPACE #226",MACON,GA,31210,"Gap, GapBody, GapKids, babyGap"
5555 WHITTLESEY BLVD,COLUMBUS,GA,31909,Gap Outlet
2100 Hamilton Place Blvd.,CHATTANOOGA,TN,37421,"Gap, GapBody, GapKids, babyGap"
701 Lynnhaven Parkway,VIRGINIA BEACH,VA,23452,"Gap, GapKids"
1600 PREMIUM OUTLETS BOULEVARD,NORFOLK,VA,23502,Gap Outlet
5715 Richmond Rd,WILLIAMSBURG,VA,23188,Gap Outlet
7100 South Croatan Highway,NAGS HEAD,NC,27959,Gap Outlet
10000 California Street,OMAHA,NE,68114,"Gap, GapKids, babyGap"
17304 Davenport Street,OMAHA,NE,68118,"Gap, GapBody, GapKids, babyGap"
21323 NEBRASKA CROSSING DRIVE,GRETNA,NE,68028,Gap Outlet
2910 Pine Lake Rd,LINCOLN,NE,68516,"Gap, GapKids"
5001 Sergeant Road,SIOUX CITY,IA,51106,Gap Outlet
4325 Glenwood Avenue,RALEIGH,NC,27612,"Gap, GapBody, GapKids"
6910 FAYETTEVILLE RD,DURHAM,NC,27713,"Gap, GapBody, GapKids, babyGap"
1025 OUTLET CENTER DRIVE,SMITHFIELD,NC,27577,Gap Outlet
4000 ARROWHEAD ROAD,MEBANE,NC,27302,Gap Outlet
401 Biscayne Boulevard,MIAMI,FL,33132,"GapKids, babyGap"
401 Biscayne Boulevard,MIAMI,FL,33132,Gap
1001 LINCOLN ROAD,MIAMI BEACH,FL,33139,"Gap, GapBody, GapKids, babyGap"
673 COLLINS AVE,MIAMI BEACH,FL,33139,"Gap, GapBody, GapKids, babyGap"
3015 GRAND AVE,COCONUT GROVE,FL,33133,"Gap, GapBody, GapMaternity, GapKids, babyGap"
5701 Sunset Drive,SOUTH MIAMI,FL,33143,"Gap, GapKids"
7615 N KENDALL DR,MIAMI,FL,33156,GapKids
7271 N KENDALL DR,MIAMI,FL,33156,"Gap, GapBody, babyGap"
7521 N KENDALL DR,MIAMI,FL,33156,babyGap
1455 NW 107TH AVE,MIAMI,FL,33172,"Gap, GapBody, GapKids, babyGap"
11401 12TH STREET,MIAMI,FL,33172,Gap Outlet
8888 SW 136TH ST,MIAMI,FL,33176,"Gap, GapBody, GapKids"
8705 SW 124TH AVE,MIAMI,FL,33183,Gap Outlet
19575 Biscayne Boulevard,AVENTURA,FL,33180,"GapKids, babyGap"
19575 Biscayne Boulevard,AVENTURA,FL,33180,"Gap, GapBody, GapKids, babyGap"
11401 PINES BLVD,PEMBROKE PINES,FL,33026,"Gap, GapBody, GapKids, babyGap"
2516 E SUNRISE BLVD,FORT LAUDERDALE,FL,33304,"Gap, GapBody, GapKids"
250 EAST PALM DRIVE,FLORIDA CITY,FL,33034,Gap Outlet
12801 W. Sunrise Blvd.,SUNRISE,FL,33323,Gap Outlet
6000 GLADES ROAD,BOCA RATON,FL,33431,Gap
6000 GLADES RD,BOCA RATON,FL,33431,"GapBody, GapKids, babyGap"
6000 WEST GLADES ROAD,BOCA RATON,FL,33431,"GapBody, GapKids, babyGap"
10300 Forest Hill Boulevard,WEST PALM BEACH,FL,33414,"Gap, GapBody"
10300 Forest Hill Boulevard,WEST PALM BEACH,FL,33414,"GapKids, babyGap"
1755 PALM BEACH LAKES BLVD,WEST PALM BEACH,FL,33401,Gap Outlet
3101 PGA Boulevard,PALM BEACH GARDENS,FL,33410,"Gap, GapBody, GapKids, babyGap"
1016 ROSEDALE SHOPPING CTR,ROSEVILLE,MN,55113,"Gap, GapBody, GapKids, babyGap"
1504 SOUTHDALE CTR,EDINA,MN,55435,GapKids
1795 Southdale Center,EDINA,MN,55435,Gap
12671 Wayzata Boulevard,MINNETONKA,MN,55305,"Gap, GapBody, GapKids, babyGap"
210 SOUTH BLVD.,BLOOMINGTON,MN,55425,"Gap, GapBody, GapKids, babyGap"
3985 EAGAN OUTLETS PARKWAY,EAGAN,MN,55122,Gap Outlet
12129 ELM CREEK BLVD.,MAPLE GROVE,MN,55369,"Gap, GapKids, babyGap"
8251 FLYING CLOUD DR,EDEN PRAIRIE,MN,55344,"Gap, GapKids"
9000 Hudson Rd,WOODBURY,MN,55125,"Gap, GapBody, GapKids, babyGap"
"6415 Labeaux Ave, NE",ALBERTVILLE,MN,55301,Gap Outlet
6415 Labeaux Ave NE,ALBERTVILLE,MN,55301,Gap Outlet
38573 Tanger Drive,NORTH BRANCH,MN,55056,Gap Outlet
6750 W. Frontage Road,MEDFORD,MN,55049,Gap Outlet
3959 2ND STREET SOUTH,ST CLOUD,MN,56301,Gap Outlet
333 Apache Mall,ROCHESTER,MN,55902,"Gap, GapKids"
1934 Utica Square,TULSA,OK,74114,"Gap, GapBody, GapKids"
7021 South Memorial Drive,TULSA,OK,74133,"Gap, GapBody, GapMaternity, GapKids, babyGap"
2350 SE WASHINGTON BLVD,BARTLESVILLE,OK,74006,Gap Outlet
26300 Cedar Road,BEACHWOOD,OH,44122,"GapKids, babyGap"
26300 Cedar Road,BEACHWOOD,OH,44122,"Gap, GapBody"
549 So. Chillicothe Road,AURORA,OH,44202,Gap Outlet
3265 W MARKET ST,FAIRLAWN,OH,44333,"Gap, GapKids"
2110 N ROCK RD,WICHITA,KS,67206,"Gap, GapBody, GapKids, babyGap"
1 POYDRAS ST,NEW ORLEANS,LA,70130,Gap Outlet
3301 Veterans Memorial Boulevard,METAIRIE,LA,70002,"Gap, GapKids, babyGap"
3301 VETERANS MEMORIAL BLVD,METAIRIE,LA,70002,"Gap, GapBody"
3414 Hwy 190,MANDEVILLE,LA,70471,"Gap, GapBody, GapKids"
2200 Tanger Blvd.,GONZALES,LA,70737,Gap Outlet
10500 FACTORY SHOP BLVD,GULFPORT,MS,39503,Gap Outlet
6401 BLUEBONNET BLVD,BATON ROUGE,LA,70809,"Gap, GapKids"
7455 Corporate Blvd.,BATON ROUGE,LA,70809,"Gap, GapBody, GapKids, babyGap"
2223 N. West Shore Blvd,TAMPA,FL,33607,"Gap, GapBody, GapKids, babyGap"
2300 GRAND CYPRESS DRIVE,LUTZ,FL,33559,Gap Outlet
5141 FACTORY SHOPS BLVD,ELLENTON,FL,34222,Gap Outlet
140 UNIVERSITY TOWNE CENTER DRIVE,SARASOTA,FL,34243,"Gap, GapBody, GapKids, babyGap"
15807 S. Apopka Vineland Road,ORLANDO,FL,32821,Gap Outlet
8228 VINELAND AVENUE,ORLANDO,FL,32821,Gap Outlet
8225 VINELAND AVE,ORLANDO,FL,32821,Gap Outlet
4969 INTERNATIONAL DRIVE,ORLANDO,FL,32819,Gap Outlet
4200 CONROY RD,ORLANDO,FL,32839,"Gap, GapBody, GapKids, babyGap"
8001 South Orange Blossom Trail,ORLANDO,FL,32809,"Gap, GapBody, GapKids, babyGap"
400 Park Avenue,WINTER PARK,FL,32789,"Gap, GapKids"
451 E ALTAMONTE DR,ALTAMONTE SPRINGS,FL,32701,"Gap, GapBody, GapKids, babyGap"
1450 ALA MOANA BLVD,HONOLULU,HI,96814,"Gap, GapBody, GapKids"
94- 821 LUMIAINA ST. STE. 6,WAIPAHU,HI,96797,Gap Outlet
900 FRONT STREET,LAHAINA,HI,96761,Gap Outlet
5425 SOUTH PADRE ISLAND DRIVE,CORPUS CHRISTI,TX,78411,Gap Outlet
1178 Saint Louis Galleria,RICHMOND HEIGHTS,MO,63117,"Gap, GapBody, GapKids, babyGap"
62 WEST COUNTY CENTER,ST LOUIS,MO,63131,"Gap, GapBody, GapKids, babyGap"
18511 OUTLET BLVD,CHESTERFIELD,MO,63005,Gap Outlet
17017 NORTH OUTER FORTY,CHESTERFIELD,MO,63005,Gap Outlet
5436 Walnut Street,PITTSBURGH,PA,15232,"Gap, GapBody, GapKids, babyGap"
137 W BRIDGE ST,HOMESTEAD,PA,15120,"Gap, GapBody, GapKids, babyGap"
1000 Ross Park Mall Drive,PITTSBURGH,PA,15237,"Gap, GapBody, GapKids, babyGap"
424 SOUTH HILLS VILLAGE,PITTSBURGH,PA,15241,"Gap, GapKids, babyGap"
100 ROBINSON CENTRE DR,PITTSBURGH,PA,15205,"Gap, GapBody, GapKids, babyGap"
2200 TANGER BLVD,WASHINGTON,PA,15301,Gap Outlet
1911 LEESBURG GROVE CITY RD,GROVE CITY,PA,16127,Gap Outlet
800 East Dimond Blvd.,ANCHORAGE,AK,99515,"GapKids, babyGap"
800 EAST DIMOND BOULEVARD,ANCHORAGE,AK,99515,"Gap, GapBody, GapKids, babyGap"
6245 N. OLD 27,FREMONT,IN,46737,Gap Outlet
1769 94th Drive,VERO BEACH,FL,32966,Gap Outlet
1 GALLERIA DR,CHEEKTOWAGA,NY,14225,"Gap, GapBody, GapKids, babyGap"
3701 MCKINLEY PKWY,BLASDELL,NY,14219,"Gap, GapBody"
1970 MILITARY RD,NIAGARA FALLS,NY,14304,Gap Outlet
300 TAYLOR ROAD,NIAGARA-ON-THE-LAKE,ON,L0S 1J0,Gap Outlet
999 UPPER WENTWORTH ST,HAMILTON,ON,L9A 4X5,"Gap, GapKids, babyGap"
900 Maple Ave,BURLINGTON,ON,L7S 2J8,"Gap, GapBody, GapMaternity"
900 Maple Avenue,BURLINGTON,ON,L7S 2J8,"GapKids, babyGap"
100 KING ST W,TORONTO,ON,M5X 1B5,babyGap
220 YONGE ST,TORONTO,ON,M5B 2H6,"GapKids, babyGap"
375 QUEEN ST W,TORONTO,ON,M5V 2A5,"Gap, GapBody, GapKids, babyGap"
260 YONGE ST - E1,TORONTO,ON,M5B 2L9,"Gap, GapBody, GapKids, babyGap"
60 BLOOR ST W,TORONTO,ON,M4W 3B8,"Gap, GapBody, GapKids, babyGap"
900 Dufferin St.,TORONTO,ON,M6H 4A9,Gap Outlet
25 THE WEST MALL,ETOBICOKE,ON,M9C 1B8,"Gap, GapBody, GapKids, babyGap"
1900 EGLINTON AVENUE EAST,SCARBOROUGH,ON,M1L 2L8,Gap Outlet
100 CITY CENTRE DRIVE,MISSISSAUGA,ON,L5B 2C9,"Gap, GapBody, GapKids"
5100 Erin Mills Parkway,MISSISSAUGA,ON,L5M 4Z5,"Gap, GapBody, GapKids, babyGap"
2574 YONGE STREET,TORONTO,ON,M4P 2J1,"GapKids, babyGap"
2635-37 YONGE ST,TORONTO,ON,M4P 2J5,Gap
300 Borough Drive,SCARBOROUGH,ON,M1P 4P5,"Gap, GapBody, GapKids, babyGap"
5950 Rodeo Drive 2B,MISSISSAUGA,ON,L5R 3V6,Gap Outlet
3401 DUFFERIN ST.,TORONTO,ON,M6A 2T9,"GapKids, babyGap"
3401 DUFFERIN ST,TORONTO,ON,M6A 2T9,"Gap, GapBody"
1800 Sheppard Avenue East,TORONTO,ON,M2J 5A7,"Gap, GapBody, GapKids, babyGap"
2901 Bayview Avenue,WILLOWDALE,ON,M2K 1E6,"Gap, GapBody, GapKids, babyGap"
100 KINGSTON ROAD EAST,AJAX,ON,L1Z 1E9,Gap Outlet
419 KING STREET WEST,OSHAWA,ON,L1J 2K5,GapKids
419 KING STREET WEST,OSHAWA,ON,L1J 2K5,"Gap, GapKids, babyGap"
1 Promenade Circle,THORNHILL,ON,L4J 4P8,"Gap, GapBody, GapKids, babyGap"
5000 HIGHWAY 7,MARKHAM,ON,L3R 4M9,"Gap, GapBody, GapKids, babyGap"
9350 YONGE ST,RICHMOND HILL,ON,L4C 5G2,"Gap, babyGap"
9350 Younge Street,RICHMOND HILL,ON,L4C 5G2,GapKids
1 BASS PRO MILLS DRIVE,VAUGHAN,ON,L4K 5W4,Gap Outlet
216 Eastview Mall,VICTOR,NY,14564,"Gap, GapBody, GapKids, babyGap"
13850 STEELES AVENUE,HALTON HILLS,ON,L7G 5G2,Gap Outlet
28 PINEBUSH ROAD,CAMBRIDGE,ON,N1R 8K5,Gap Outlet
1930 DOUGLAS PARKWAY,ERIE,PA,16509,Gap Outlet
17600 Yonge Street,NEWMARKET,ON,L3Y 4Z1,"Gap, GapBody, babyGap"
3311 SIMCOE ROAD 89,COOKSTOWN,ON,L0L 1L0,Gap Outlet
645 LANSDOWNE STREET WEST,PETERBOROUGH,ON,K9J 7Y5,Gap Outlet
1722 APPLE GLEN BLVD,FORT WAYNE,IN,46804,Gap Outlet
6650 S WESTNEDGE AVE,PORTAGE,MI,49024,"Gap, GapKids"
20350 SUMMERLIN ROAD,FORT MYERS,FL,33908,Gap Outlet
5300 SAN DARIO AVE,LAREDO,TX,78041,"Gap, GapBody, GapKids"
1500 WATER STREET,LAREDO,TX,78040,Gap Outlet
56 WEST TOWN MALL,MADISON,WI,53719,GapKids
58A West Towne Mall,MADISON,WI,53719,Gap
9402 ST ROAD 16,ONALASKA,WI,54650,Gap Outlet
210 GASSER ROAD,BARABOO,WI,53913,Gap Outlet
2910 W. LOOP 289,LUBBOCK,TX,79407,Gap Outlet
1350 SCHEELS DRIVE,SPARKS,NV,89434,Gap Outlet
3444 NW Federal Highway,JENSEN BEACH,FL,34957,"Gap, GapBody, GapKids"
5725 JOHNSON ST,LAFAYETTE,LA,70503,"Gap, GapKids, babyGap"
5725 Johnston Street,LAFAYETTE,LA,70503,"GapKids, babyGap"
350 N MILWAUKEE ST,BOISE,ID,83704,"Gap, GapBody, GapKids, babyGap"
2130 N. EAGLE RD,MERIDIAN,ID,83642,Gap Outlet
240 Summit Blvd,BIRMINGHAM,AL,35243,"Gap, GapBody, GapKids, babyGap"
2000 RIVERCHASE GALLERIA,HOOVER,AL,35244,"Gap, GapKids, babyGap"
6200 Grand River Blvd.,LEEDS,AL,35094,Gap Outlet
7064 Eastchase Pkwy,MONTGOMERY,AL,36117,"Gap, GapKids, babyGap"
808 W MAIN AVE,SPOKANE,WA,99201,"Gap, GapBody, GapKids, babyGap"
655 ROUTE 318,WATERLOO,NY,13165,Gap Outlet
190 BELL BLVD,BELLEVILLE,ON,K8P 5L2,Gap Outlet
230-234 Princess St,KINGSTON,ON,K7L 1B2,GapKids
230-234 Princess St,KINGSTON,ON,K7L 1B2,"Gap, GapBody, babyGap"
1551 VALLEY WEST DRIVE,WEST DES MOINES,IA,50266,"Gap, GapBody"
1551 VALLEY WEST DR,WEST DES MOINES,IA,50266,"GapKids, babyGap"
101 JORDAN CREEK PKWY,WEST DES MOINES,IA,50266,"Gap, GapBody, GapKids, babyGap"
2525 GRAND AVE,AMES,IA,50010,Gap Outlet
6842 MAIN STREET,WILMINGTON,NC,28405,"Gap, GapKids, babyGap"
10847 KINGS RD,MYRTLE BEACH,SC,29572,Gap Outlet
4635 Factory Stores Blvd.,MYRTLE BEACH,SC,29579,Gap Outlet
3500 ROSS CLARK CIRCLE,DOTHAN,AL,36303,Gap Outlet
20-A KINGSWORTH TURNPIKE,CLINTON,CT,06413,Gap Outlet
1500 NEW BRITAIN AVE,FARMINGTON,CT,06032,"Gap, GapBody, GapKids, babyGap"
380 West Main Street,AVON,CT,06001,"Gap, GapBody, GapKids, babyGap"
4501 N WAR MEMORIAL DR,PEORIA,IL,61613,"Gap, GapKids"
240 Boardwalk Boulevard,BOSSIER CITY,LA,71111,Gap Outlet
6000 W. Markham,LITTLE ROCK,AR,72205,"Gap, GapBody, GapKids, babyGap"
11201 BASS PRO PARKWAY #G,LITTLE ROCK,AR,72210,Gap Outlet
3450 Wrightsboro Road,AUGUSTA,GA,30909,"Gap, GapBody, GapKids, babyGap"
2601 South McKenzie Street,FOLEY,AL,36535,Gap Outlet
3175 28TH ST S.E.,GRAND RAPIDS,MI,49512,"Gap, GapBody, GapKids, babyGap"
350 84th STREET,BYRON CENTER,MI,49315,Gap Outlet
12330 James Street,HOLLAND,MI,49424,Gap Outlet
5600 HARVEY ST,MUSKEGON,MI,49444,"Gap, GapKids"
50 SOUTH MAIN STREET,SALT LAKE CITY,UT,84101,"Gap, GapBody, GapKids, babyGap"
6191 SO STATE ST,MURRAY,UT,84107,"Gap, GapKids, babyGap"
225 N. EAST PROMONTORY,FARMINGTON,UT,84025,"Gap, GapBody, GapKids, babyGap"
6699 LANDMARK DR,PARK CITY,UT,84098,Gap Outlet
3700 CABELA BLVD,LEHI,UT,84043,Gap Outlet
4071 RIVERDALE ROAD,OGDEN,UT,84405,Gap Outlet
1300 South State Street,OREM,UT,84097,"Gap, GapBody, GapMaternity, GapKids, babyGap"
1500 Apalachee Parkway,TALLAHASSEE,FL,32301,"Gap, GapBody, GapKids, babyGap"
7600 KINGSTON PIKE,KNOXVILLE,TN,37919,"Gap, GapBody, GapKids, babyGap"
1645 PARKWAY,SEVIERVILLE,TN,37862,Gap Outlet
800 BREVARD RD,ASHEVILLE,NC,28806,Gap Outlet
3 So Tunnel Rd,ASHEVILLE,NC,28805,"Gap, GapBody, GapKids, babyGap"
2370 N EXPRESSWAY,BROWNSVILLE,TX,78526,"Gap, GapBody, GapKids"
5001 E. EXPRESSWAY 83,MERCEDES,TX,78570,Gap Outlet
2200 South 10th Street,MCALLEN,TX,78503,babyGap
2200 South 10th Street,MCALLEN,TX,78503,"Gap, GapBody, GapKids, babyGap"
50 HOLYOKE ST,HOLYOKE,MA,01040,"Gap, GapBody, GapKids, babyGap"
600 PREMIUM OUTLETS BLVD,LEE,MA,01238,Gap Outlet
4733-4749 Main Street,MANCHESTER,VT,05255,Gap Outlet
MONTAUK HIGHWAY & SNAKE HOLLOW ROAD,BRIDGEHAMPTON,NY,11932,"Gap, GapKids, babyGap"
250 PLAINFIELD RD,WEST LEBANON,NH,03784,Gap Outlet
200 BASS PRO DRIVE,PEARL,MS,39208,Gap Outlet
4000 South Frontage Road,VICKSBURG,MS,39180,Gap Outlet
10801 CORKSCREW RD,ESTERO,FL,33928,Gap Outlet
5495 TAMIAMI TRAIL N,NAPLES,FL,34108,"Gap, GapBody, GapKids, babyGap"
550 W EMPIRE MALL,SIOUX FALLS,SD,57106,"Gap, GapBody, GapKids, babyGap"
300 Tanger Blvd,BRANSON,MO,65616,Gap Outlet
4540 OSAGE BEACH PARKWAY,OSAGE BEACH,MO,65065,Gap Outlet
I-540 & PROMENADE BLVD,ROGERS,AR,72758,"GapKids, babyGap"
2203 S. PROMENADE BLVD,ROGERS,AR,72758,"Gap, GapBody"
430 Colonie Center,ALBANY,NY,12205,"Gap, GapKids"
1 Crossgates Mall Road,ALBANY,NY,12203,"Gap, GapBody, GapKids, babyGap"
400 BALLTOWN RD,NISKAYUNA,NY,12304,Gap Outlet
341 Broadway,SARATOGA SPRINGS,NY,12866,"Gap, GapBody, GapKids"
4231 ELMORE AVE,DAVENPORT,IA,52807,Gap Outlet
2000 North Neil Street,CHAMPAIGN,IL,61820,"Gap, GapBody, GapKids, babyGap"
122 W. Broughton Street,SAVANNAH,GA,31401,"Gap, GapBody, GapKids"
7804 ABERCORN ST,SAVANNAH,GA,31406,"Gap, GapBody, GapKids"
200 TANGER OUTLET BLVD,POOLER,GA,31322,Gap Outlet
1414 FORDING ISLAND RD,BLUFFTON,SC,29910,Gap Outlet
269 King Street,CHARLESTON,SC,29401,"Gap, GapBody"
4810 TANGER OUTLET BOULEVARD,NORTH CHARLESTON,SC,29418,Gap Outlet
1229 Belk Drive,MT PLEASANT,SC,29464,"Gap, GapBody, GapKids"
2505 VESTAL PARKWAY EAST,VESTAL,NY,13850,Gap Outlet
245 TANGER DR,WILLIAMSBURG,IA,52361,Gap Outlet
2810 W. LOOP 250 N,MIDLAND,TX,79705,Gap Outlet
100 MANHATTAN TOWN CTR,MANHATTAN,KS,66502,"Gap, GapKids"
564 W Prien Lake Rd,LAKE CHARLES,LA,70601,"Gap, GapKids, babyGap"
100 VIEWMONT MALL,SCRANTON,PA,18508,"Gap, GapKids"
210 S. LYCOMING MALL ROAD,MUNCY,PA,17756,Gap Outlet
421 N. STADIUM BLVD,COLUMBIA,MO,65203,Gap Outlet
E800 TUSCOLA BLVD,TUSCOLA,IL,61953,Gap Outlet
3902 13TH AVE SOUTH,FARGO,ND,58103,Gap
3902 13TH AVE SW,FARGO,ND,58103,GapKids
2800 S COLUMBIA RD,GRAND FORKS,ND,58201,"Gap, GapKids"
13 SETTLER'S GREEN,NORTH CONWAY,NH,03860,Gap Outlet
35 Main Street,FREEPORT,ME,04032,Gap Outlet
15735 CROYDON DRIVE,SURREY,BC,V3S 2L5,Gap Outlet
5000 CANOE PASS WAY,TSAWWASSEN,BC,V4M 4G9,Gap Outlet
2232 GUILDFORD TOWN CENTER,SURREY,BC,V3R 7B9,"Gap, babyGap"
2232 Guildford Towne Centre,SURREY,BC,V3R 7B9,GapKids
QUEENS BOROUGH LANDING,NEW WESTMINSTER,BC,V3M 5X2,Gap Outlet
6551 No. 3 Road,RICHMOND,BC,V6Y 2B9,"Gap, babyGap"
6551 Number 3 Rd,RICHMOND,BC,V6Y 2B9,GapKids
4700 KINGSWAY,BURNABY,BC,V5H 4M1,"Gap, GapBody, GapKids, babyGap"
4700 KINGSWAY,BURNABY,BC,V5H 4M1,"GapKids, babyGap"
2929 Barnet Highway,COQUITLAM,BC,V3B 5R5,"Gap, GapBody, babyGap"
2929 Barnet Highway,COQUITLAM,BC,V3B 5R5,GapKids
7899 TEMPLETON STATION ROAD,RICHMOND,BC,V7B OB7,Gap Outlet
650 WEST 41ST AVENUE,VANCOUVER,BC,V5Z 2M9,"Gap, babyGap"
650 WEST 41ST AVENUE,VANCOUVER,BC,V5Z 2M9,GapKids
2134 West 41st Avenue,VANCOUVER,BC,V6M 1Z1,"GapKids, babyGap"
701 W GEORGIA ST,VANCOUVER,BC,V7Y 1E7,Gap
879 HIGUERA STREET,SAN LUIS OBISPO,CA,93401,"Gap, babyGap"
888 W. SECOND ST.,CALEXICO,CA,92231,Gap Outlet
1105 Wellington Road South,LONDON,ON,N6E 1V4,"Gap, GapBody"
1105 Wellington Road South,LONDON,ON,N6E 1V4,"GapKids, babyGap"
1680 Richmond St. N,LONDON,ON,N6G 3Y9,"Gap, GapKids, babyGap"
2960 Kingsway Drive,KITCHENER,ON,N2C 1X1,"GapKids, babyGap"
2960 KINGSWAY DRIVE,KITCHENER,ON,N2C 1X1,"Gap, GapBody, babyGap"
550 KING ST N,WATERLOO,ON,N2L 5W6,"Gap, GapBody, babyGap"
550 King Street North,WATERLOO,ON,N2L 5W6,GapKids
