Address,City,State,Zip
1935 14 Street NW,Washington,DC,20009
1042 Wisconsin Avenue NW,Washington,DC,20007
601 Massachusetts Avenue NW,Washington,DC,20001
2301 M Street NW,Washington,DC,20037
8 West 19th Street,New York ,NY,10011
55 Court Street,Brooklyn,NY,11201
5 Bryant Park (41st Between 6th Ave. and Broadway),New York,NY,10018
98 10th Avenue,New York,NY,10011
240 East 54th Street,New York,NY,10022
140 E 63rd Street,New York,NY,10065
1470 Third Avenue,New York,NY,10028
101 Maiden Lane,New York,NY,10038
384 Lafayette Street,New York,NY,10003
12 West 27th Street,New York,NY,10001
342 Flatbush Avenue,Brooklyn,NY,11238
45 Crosby Street,New York ,NY,10012
103 Warren Street,New York,NY,10007
12 E 18th Street,New York,NY,10003
21 West End Ave,New York,NY,10023
350 Amsterdam Avenue,New York,NY,10023
2465 Broadway,New York,NY,10025
126 Leroy Street,New York,NY,10014
196 Kent Avenue,Brooklyn,NY,11249
2 Coulter Avenue,Ardmore,PA,19003
113 South 16th Street,Philadelphia,PA,19102
500 Boylston Street (Entrance on the Corner of St. James and Clarendon),Boston,MA,02116
300 Cambridge Street,Boston,MA,02114
200-230 Boylston Street,Chestnut Hill,MA,02467
214 Legacy Place,Dedham,MA,02026
101 Seaport Boulevard,Boston,MA,02210
10470 NE 4th Street,Bellevue,WA,98004
760 Hearst Avenue (Suite 101),Berkeley,CA,94710
400 Castro Street,San Francisco,CA,94114
212 North Santa Cruz Avenue,Los Gatos,CA,95030
Marin Country Mart,Larkspur,CA,94939
600 Stanford Shopping Center,Palo Alto ,CA,94304
2 East 3rd Avenue,San Mateo,CA,94401
75 First Street,San Francisco,CA,94105
2095 Union Street,San Francisco ,CA,94123
"Broadway Plaza, 116 Broadway Lane (Macy's Parking Garage Entrance off of South Broadway)",Walnut Creek,CA,94596
4931 Elm Street,Bethesda,MD,20814
9465 Wilshire Boulevard,Beverly Hills ,CA,90212
11640 San Vicente Boulevard,Los Angeles,CA,90049
23500 Park Sorrento,Calabasas,CA,91302
8820 Washington Boulevard,Culver City,CA,90232
898 Olive Street,Los Angeles,CA,90015
6201 Hollywood Boulevard,Los Angeles,CA,90028
3874 Cross Creek Road,Malibu,CA,90265
"The Point, 820 S Sepulveda Street",El Segundo,CA,90245
1177 Newport Center Drive (Fashion Island),Newport Beach,CA,92660
140 South Lake Avenue,Pasadena ,CA,91101
120 Wilshire Boulevard,Santa Monica,CA,90401
8570 Sunset Boulevard,West Hollywood,CA,90069
966 S. Westlake Boulevard,Westlake Village,CA,91361
264 Butter Lane,Bridgehampton,NY,11932
68 Newtown Lane,East Hampton,NY,11937
15 S. Edgemere Street,Montauk,NY,11954
760 Montauk Highway,Water Mill,NY,11976
94 Kraft Avenue,Bronxville,NY,10708
21 Rye Ridge Plaza,Rye Brook ,NY,10573
"7 Popham Road, 3rd Floor",Scarsdale,NY,10583
Shops at Merrick Park,Coral Gables,FL,33146
2325 Collins Avenue,Miami Beach,FL,33139
"The Domain, 11800 Domain Boulevard",Austin,TX,78758
401 Congress Avenue,Austin,TX,78701
Woodway Collection 1343 S Voss,Houston,TX,77057
5944 W Northwest Hwy,Dallas,TX,75225
2549 Kirby Drive,Houston,TX,77019
3699 McKinney Ave #309,Dallas,TX,75204
266 Mason Street,Greenwich,CT,06830
372 Post Road E,Westport,CT,06880
250 Upper Main Street,Edgartown,MA,02539
"4999 Old Orchard Center, L63",Skokie,IL,60077
1225 North Wells Street,Chicago,IL,60610
3423 N. Southport Avenue,Chicago,IL,60657
111 West Wacker,Chicago,IL,60601
250 S Service Road,Roslyn Heights,NY,11577
8285 Jericho Turnpike,Woodbury,NY,11797
"800 Morris Turnpike, Suite 107",Short Hills,NJ,07078
